ONEWEB-0055             
1 45443U 20020V   24076.31892093 -.00000262  00000+0 -77418-3 0  9999
2 45443  87.9045 184.6814 0001671 104.8533 255.2780 13.11414374194772
ONEWEB-0093             
1 45444U 20020W   24076.21584658  .00000608  00000+0  16785-2 0  9995
2 45444  87.9038 184.6801 0001621 100.4883 259.6428 13.11415349194822
ONEWEB-0029             
1 45445U 20020X   24076.31161184 -.00000167  00000+0 -50691-3 0  9999
2 45445  87.9040 184.6753 0001933  98.4623 261.6724 13.11414157194813
ONEWEB-0068             
1 45446U 20020Y   24076.21016023  .00000626  00000+0  17304-2 0  9991
2 45446  87.9042 184.6801 0001739  98.2175 261.9150 13.11416556194747
ONEWEB-0046             
1 45447U 20020Z   24075.74994828  .00000526  00000+0  14485-2 0  9993
2 45447  87.9032 184.7802 0002624 107.9682 252.1732 13.11414594194685
ONEWEB-0063             
1 45448U 20020AA  24076.38953511 -.00000221  00000+0 -65801-3 0  9992
2 45448  87.9037 184.6587 0002194 108.2177 251.9189 13.11414448194855
ONEWEB-0019             
1 45449U 20020AB  24076.21097698  .00000596  00000+0  16454-2 0  9992
2 45449  87.9043 184.6933 0001780 110.9891 249.1428 13.11416607194686
ONEWEB-0094             
1 45450U 20020AC  24076.28473385 -.00000326  00000+0 -87199-3 0  9990
2 45450  87.9257 169.5461 0001810  94.6417 265.4922 13.17649357197947
ONEWEB-0087             
1 45451U 20020AD  24076.31972679 -.00000394  00000+0 -11483-2 0  9992
2 45451  87.9033 184.6490 0001949  95.1465 264.9885 13.11416638194747
ONEWEB-0082             
1 45452U 20020AE  24076.32134862 -.00000402  00000+0 -11694-2 0  9992
2 45452  87.9034 184.6483 0001829 108.5125 251.6202 13.11416536194833
ONEWEB-0050             
1 45453U 20020AF  24075.93040411  .00003475  00000+0  37040-3 0  9990
2 45453  87.9998  51.7376 0005816  75.3535 284.8337 14.88631562217740
ONEWEB-0034             
1 45454U 20020AG  24076.34083576 -.00000127  00000+0 -39445-3 0  9990
2 45454  87.9043 184.6632 0001879 105.4541 254.6794 13.11419020194755
ONEWEB-0060             
1 45455U 20020AH  24076.19635681  .00000286  00000+0  77098-3 0  9994
2 45455  87.9044 184.6884 0002006 102.7399 257.3953 13.11422376194698
ONEWEB-0086             
1 45456U 20020AJ  24076.36681458  .00000531  00000+0  14611-2 0  9991
2 45456  87.9040 184.6602 0001898  89.9616 270.1729 13.11415564194762
ONEWEB-0088             
1 45457U 20020AK  24076.34407958  .00000004  00000+0 -25430-4 0  9990
2 45457  87.9034 184.6329 0001970 103.0270 257.1078 13.11418284194705
ONEWEB-0102             
1 47258U 20100A   24075.24067827 -.00000332  00000+0 -95945-3 0  9997
2 47258  87.9027 154.6774 0001871 110.0551 250.0779 13.12442346156658
ONEWEB-0109             
1 47259U 20100B   24076.23970124 -.00000436  00000+0 -12467-2 0  9993
2 47259  87.9022 154.4427 0001841 106.7604 253.3726 13.12441852156610
ONEWEB-0110             
1 47260U 20100C   24076.18729499  .00000134  00000+0  33691-3 0  9992
2 47260  87.9014 154.4630 0001761 103.6072 256.5252 13.12444066156771
ONEWEB-0111             
1 47261U 20100D   24075.68698733 -.00000051  00000+0 -17587-3 0  9999
2 47261  87.9020 154.5543 0001929 106.4418 253.6923 13.12441393156542
ONEWEB-0114             
1 47262U 20100E   24076.17457950 -.00000264  00000+0 -76799-3 0  9995
2 47262  87.9012 154.4765 0002029 121.3688 238.7640 13.12443213156561
ONEWEB-0117             
1 47263U 20100F   24076.24287741 -.00000440  00000+0 -12580-2 0  9996
2 47263  87.9027 154.4361 0002264 106.5403 253.5974 13.12442939156582
ONEWEB-0118             
1 47264U 20100G   24076.19842012  .00000419  00000+0  11283-2 0  9992
2 47264  87.9026 154.4489 0002299 117.7224 242.4138 13.12443364156779
ONEWEB-0119             
1 47265U 20100H   24076.22699757 -.00000066  00000+0 -21918-3 0  9990
2 47265  87.9035 154.4834 0003111 116.1005 244.0443 13.12442123156755
ONEWEB-0120             
1 47266U 20100J   24075.63947838 -.00000196  00000+0 -58131-3 0  9992
2 47266  87.9030 154.5862 0001795 106.3872 253.7454 13.12445850156706
ONEWEB-0121             
1 47267U 20100K   24075.24702871 -.00000445  00000+0 -12716-2 0  9991
2 47267  87.9014 154.6582 0001982 104.6335 255.5013 13.12442774156569
ONEWEB-0122             
1 47268U 20100L   24076.15697285 -.00000295  00000+0 -85471-3 0  9997
2 47268  87.9027 154.4850 0001907 108.1863 251.9473 13.12442206156595
ONEWEB-0123             
1 47269U 20100M   24076.22858515 -.00000146  00000+0 -44104-3 0  9994
2 47269  87.9025 154.4804 0002020 106.0802 254.0549 13.12442549156745
ONEWEB-0124             
1 47270U 20100N   24076.21747871  .00000198  00000+0  51515-3 0  9996
2 47270  87.9015 154.4763 0001959  93.9951 266.1402 13.12442706156623
ONEWEB-0125             
1 47271U 20100P   24076.19206831  .00000317  00000+0  84642-3 0  9990
2 47271  87.9024 154.4407 0002391 102.0137 258.1260 13.12446095156682
ONEWEB-0126             
1 47272U 20100Q   24076.21984288  .00000133  00000+0  33424-3 0  9991
2 47272  87.9020 154.4462 0002737 118.8909 241.2494 13.12443118156759
ONEWEB-0127             
1 47273U 20100R   24076.18093719 -.00000063  00000+0 -21097-3 0  9995
2 47273  87.9027 154.4791 0001848 105.9565 254.1767 13.12443591156772
ONEWEB-0128             
1 47274U 20100S   24076.20318408  .00000440  00000+0  11875-2 0  9993
2 47274  87.9035 154.4727 0001577  99.7739 260.3568 13.12443023156793
ONEWEB-0129             
1 47275U 20100T   24076.18252792 -.00000009  00000+0 -60513-4 0  9992
2 47275  87.9017 154.4476 0002386 147.1500 212.9778 13.12442673156727
ONEWEB-0130             
1 47276U 20100U   24076.21112636  .00000367  00000+0  98390-3 0  9997
2 47276  87.9026 154.4533 0001676 104.6116 255.5198 13.12442093156695
ONEWEB-0131             
1 47277U 20100V   24076.20794226  .00000439  00000+0  11836-2 0  9997
2 47277  87.9030 154.4660 0001745  99.7667 260.3659 13.12441109156732
ONEWEB-0132             
1 47278U 20100W   24076.23652130 -.00000289  00000+0 -83920-3 0  9997
2 47278  87.9033 154.4629 0002431 102.8256 257.3144 13.12442655156635
ONEWEB-0133             
1 47279U 20100X   24076.17617714 -.00000223  00000+0 -65505-3 0  9997
2 47279  87.9013 154.4763 0001923 100.7060 259.4285 13.12445195156785
ONEWEB-0134             
1 47280U 20100Y   24076.22223570  .00000104  00000+0  25442-3 0  9990
2 47280  87.9018 154.4567 0001600 100.5189 259.6119 13.12440989156768
ONEWEB-0135             
1 47281U 20100Z   24075.27562960  .00000343  00000+0  91815-3 0  9996
2 47281  87.9026 154.6550 0001816 103.4687 256.6644 13.12443537156667
ONEWEB-0136             
1 47282U 20100AA  24075.29785926  .00000385  00000+0  10358-2 0  9996
2 47282  87.9026 154.6191 0001394 111.1806 248.9471 13.12442241156594
ONEWEB-0137             
1 47283U 20100AB  24076.24605364 -.00000373  00000+0 -10730-2 0  9993
2 47283  87.9018 154.4599 0002084 111.4487 248.6864 13.12442968156624
ONEWEB-0138             
1 47284U 20100AC  24076.22540705 -.00000080  00000+0 -25890-3 0  9998
2 47284  87.9021 154.4770 0001918 106.7203 253.4136 13.12442016156707
ONEWEB-0139             
1 47285U 20100AD  24076.19683066  .00000427  00000+0  11521-2 0  9991
2 47285  87.9023 154.4504 0001885 104.0660 256.0679 13.12443077156772
ONEWEB-0140             
1 47286U 20100AE  24076.29529756  .00000192  00000+0  49938-3 0  9991
2 47286  87.9020 154.4383 0001789 106.5251 253.6074 13.12441917156741
ONEWEB-0141             
1 47287U 20100AF  24075.24782098 -.00000350  00000+0 -10078-2 0  9996
2 47287  87.9027 154.6444 0002208 105.1746 254.9627 13.12442635156601
ONEWEB-0142             
1 47288U 20100AG  24076.15631176 -.00000253  00000+0 -73820-3 0  9995
2 47288  87.9024 154.4568 0001974 115.3103 244.8230 13.12440721156717
ONEWEB-0143             
1 47289U 20100AH  24076.18570445  .00000023  00000+0  29896-4 0  9998
2 47289  87.9022 154.4702 0001993 102.6671 257.4680 13.12443429156690
ONEWEB-0144             
1 47290U 20100AJ  24076.15869383 -.00000224  00000+0 -65914-3 0  9994
2 47290  87.9025 154.4602 0002782 118.9527 241.1881 13.12441624156611
ONEWEB-0145             
1 47291U 20100AK  24076.20636116  .00000501  00000+0  13566-2 0  9998
2 47291  87.9025 154.4745 0001889 110.0592 250.0740 13.12442630156815
ONEWEB-0146             
1 47292U 20100AL  24076.20159371  .00000355  00000+0  95167-3 0  9997
2 47292  87.9024 154.4579 0002106  91.5651 268.5719 13.12442794156723
ONEWEB-0147             
1 47293U 20100AM  24076.24446459 -.00000461  00000+0 -13158-2 0  9997
2 47293  87.9024 154.4477 0002377 114.6721 245.4655 13.12442749156628
ONEWEB-0115             
1 48042U 21025A   24076.53356540 -.00000330  00000+0 -93757-3 0  9999
2 48042  87.8942 124.0111 0002198  95.7610 264.3769 13.13467927145613
ONEWEB-0152             
1 48043U 21025B   24076.16537022 -.00000166  00000+0 -49077-3 0  9998
2 48043  87.8935 124.0768 0001927  96.4227 263.7121 13.13469097145520
ONEWEB-0153             
1 48044U 21025C   24076.52404425 -.00000005  00000+0 -49475-4 0  9994
2 48044  87.8946 123.9918 0001944  99.4328 260.7021 13.13469263145567
ONEWEB-0154             
1 48045U 21025D   24076.13998241  .00000041  00000+0  78112-4 0  9994
2 48045  87.8937 124.0818 0001963  97.8997 262.2355 13.13468606145471
ONEWEB-0116             
1 48046U 21025E   24075.49564504  .00000210  00000+0  53983-3 0  9990
2 48046  87.8940 124.1758 0001995  90.9331 269.2027 13.13468682145524
ONEWEB-0150             
1 48047U 21025F   24076.15584685 -.00000257  00000+0 -73914-3 0  9996
2 48047  87.8930 124.0682 0001971 102.0882 258.0468 13.13468813145508
ONEWEB-0107             
1 48048U 21025G   24076.53832654 -.00000395  00000+0 -11173-2 0  9992
2 48048  87.8937 123.9914 0002270 109.4896 250.6478 13.13467704145531
ONEWEB-0101             
1 48049U 21025H   24075.51151767  .00000312  00000+0  81851-3 0  9997
2 48049  87.8942 124.2060 0001868  99.8431 260.2909 13.13468091145371
